STARLINK-31363          
1 59782U 24093A   26068.70075876 -.00002146  00000+0 -68522-4 0  9992
2 59782  43.0027 205.6275 0001106 210.0856 149.9932 15.27564690102731
FLOCK 4G-14             
1 62667U 25009BL  26068.75869712  .00011310  00000+0  42676-3 0  9993
2 62667  97.4064 151.1836 0003006 318.3639  41.7371 15.27197201 63711
